YARILO 3
1 57198U 23091AJ  25091.20856172  .00331499  00000-0  27453-2 0  9995
2 57198  97.5566 159.9051 0006966 213.4085 146.6737 15.69216906 97791
SITRO-AIS-10 (KATYS)
1 57199U 23091AK  25091.20164909  .00018008  00000-0  78750-3 0  9991
2 57199  97.5667 150.4520 0010283 187.7112 172.3967 15.22085102 97198
SITRO-AIS-9 (BURDAEV)
1 57201U 23091AM  25091.21174974  .00018231  00000-0  80049-3 0  9991
2 57201  97.5665 150.3978 0010208 187.6602 172.4479 15.21945150 97192
UTMN-2 (RS27S)
1 57203U 23091AP  25091.16388161  .00015837  00000-0  73942-3 0  9995
2 57203  97.5675 149.7694 0010974 185.5678 174.5436 15.19858221 97142
SITRO-AIS-12 (FARTUSHNY)
1 57204U 23091AQ  25091.20308164  .00017794  00000-0  77680-3 0  9993
2 57204  97.5673 150.6405 0010268 182.0927 178.0267 15.22148223 97203
ARCCUBE-1 (RS25S)
1 57205U 23091AR  25091.21461239  .00051660  00000-0  13870-2 0  9998
2 57205  97.5555 154.4284 0008173 181.0015 179.1214 15.37736748 97484
AHMAT-1 (RS41S)
1 57206U 23091AS  25091.20146593  .00026997  00000-0  10053-2 0  9996
2 57206  97.5630 152.0397 0009045 185.3559 174.7584 15.27408883 97315
SITRO-AIS-11 (SMIRENNY)
1 57208U 23091AU  25091.16439289  .00018818  00000-0  81725-3 0  9998
2 57208  97.5672 150.6726 0010145 182.4074 177.7114 15.22313552 97209
KUZGTU-1 (RS47S)
1 57217U 23091AV  25091.19910734  .00013979  00000-0  68228-3 0  9996
2 57217  97.5664 148.3953 0014203 199.9472 160.1208 15.18311188 97062
STRATOSAT-TK1-A (RS45S)
1 57322U 23091AW  25091.21657814  .00103499  00000-0  19495-2 0  9991
2 57322  97.5577 155.7303 0009512 188.7363 171.3723 15.48096919 95435
STRATOSAT-TK1-E (RS52SE)
1 57323U 23091AX  25091.19941160  .00034148  00000-0  12101-2 0  9990
2 57323  97.5635 151.5119 0011904 194.5151 165.5748 15.28960788 95151
STRATOSAT-TK1-B (RS52SB)
1 57324U 23091AY  25091.18727524  .00101178  00000-0  19259-2 0  9995
2 57324  97.5580 155.6328 0009491 188.6381 171.4707 15.47803038 95421
STRATOSAT-TK1-D (RS52SD)
1 57326U 23091BA  25091.20697273  .00032302  00000-0  11665-2 0  9992
2 57326  97.5629 151.3192 0011964 194.7307 165.3586 15.28352588 94988
STRATOSAT-TK1-V (RS52SV)
1 57327U 23091BB  25091.22533487  .00101194  00000-0  19110-2 0  9990
2 57327  97.5584 155.7631 0009423 188.8014 171.3072 15.48032322 95274
VERONIKA
1 58261U 23174F   25091.19003130  .00093587  00000-0  14776-2 0  9992
2 58261  97.4180 174.1173 0006550 277.2006  82.8502 15.53158583 77853
ENSO
1 58470U 23185J   25091.19318520  .00053924  00000-0  10485-2 0  9992
2 58470  97.3795 164.4868 0006466 325.8552  34.2281 15.47409131 74270
HAYASAT-1
1 58471U 23185K   25091.07245005  .00365271  00000-0  20145-2 0  9992
2 58471  97.3680 168.5152 0006710 269.5211  90.5287 15.78652503 74530
METEOR M2-4
1 59051U 24039A   25091.21330842  .00000110  00000-0  68915-4 0  9993
2 59051  98.6423  52.6670 0007447  18.7429 341.4022 14.22352590 56430
SITRO-AIS-29
1 59052U 24039B   25091.16035938  .00254161  00000-0  16358-2 0  9995
2 59052  97.4143  64.3788 0005682 176.9954 183.1346 15.75440455 61035
SITRO-AIS-30
1 59053U 24039C   25091.13620426  .00228586  00000-0  16440-2 0  9999
2 59053  97.4137  64.0890 0005292 185.7592 174.3612 15.72918546 61006
SITRO-AIS-31
1 59054U 24039D   25091.17467943  .00240766  00000-0  16106-2 0  9990
2 59054  97.4156  64.3641 0005107 183.2578 176.8654 15.74585088 61047
SITRO-AIS-33
1 59055U 24039E   25091.07659707  .00233026  00000-0  15412-2 0  9991
2 59055  97.4135  64.3419 0005374 178.6627 181.4653 15.74869544 61028
SITRO-AIS-35
1 59056U 24039F   25091.18423668  .00247718  00000-0  15947-2 0  9995
2 59056  97.4149  64.5107 0005021 176.8389 183.2909 15.75456797 61043
SITRO-AIS-32
1 59057U 24039G   25091.01574015  .00235786  00000-0  16514-2 0  9994
2 59057  97.4153  64.1333 0005010 183.0036 177.1199 15.73525037 61004
SITRO-AIS-34
1 59058U 24039H   25091.01515226  .00246185  00000-0  16291-2 0  9991
2 59058  97.4139  64.2769 0005264 177.2018 182.9277 15.74821324 61010
SITRO-AIS-36
1 59059U 24039J   25091.12496651  .00231292  00000-0  15592-2 0  9990
2 59059  97.4133  64.4158 0005075 176.3380 183.7923 15.74432045 61038
SITRO-AIS-49
1 59060U 24039K   25091.05413872  .00202350  00000-0  14365-2 0  9998
2 59060  97.4146  64.2184 0005138 182.3687 177.7553 15.73301015 61019
SITRO-AIS-50
1 59062U 24039M   25091.07478987  .00277121  00000-0  16481-2 0  9999
2 59062  97.4122  64.6324 0005762 172.6257 187.5094 15.77188168 61041
SITRO-AIS-51
1 59061U 24039L   25091.09663067  .00274726  00000-0  16747-2 0  9998
2 59061  97.4128  64.6017 0005891 173.4757 186.6586 15.76630974 61044
SITRO-AIS-52
1 59063U 24039N   25090.92135619  .00266271  00000-0  15758-2 0  9995
2 59063  97.4144  64.5507 0005304 174.2301 185.9027 15.77331781 61025
ZORKIY-2M 2
1 59064U 24039P   25091.19225429  .00055500  00000-0  10015-2 0  9997
2 59064  97.4257  61.3641 0006723 251.3072 108.7449 15.49548412 60843
PARS-1
1 59065U 24039Q   25091.18386966  .00015141  00000-0  44965-3 0  9990
2 59065  97.4343  58.5212 0009451 265.4022  94.6142 15.34838850 60614
SITRO-AIS-25
1 59066U 24039R   25091.22994007  .00007361  00000-0  62890-3 0  9999
2 59066  95.3776 292.8513 0159507  68.2202 293.5908 14.88386975 58875
SITRO-AIS-26
1 59067U 24039S   25091.18176222  .00006890  00000-0  59070-3 0  9998
2 59067  95.3777 292.7881 0159772  68.5662 293.2518 14.88243005 58860
SITRO-AIS-27
1 59068U 24039T   25091.19170355  .00006931  00000-0  59047-3 0  9991
2 59068  95.3779 292.8947 0159033  67.9785 293.8246 14.88557342 58873
SITRO-AIS-28
1 59071U 24039U   25091.18066505  .00007589  00000-0  64576-3 0  9998
2 59071  95.3781 292.9097 0158915  67.9609 293.8408 14.88596917 58871
SONATE-2
1 59112U 24043Q   25090.84619547  .00026276  00000-0  83343-3 0  9998
2 59112  97.5034 220.8161 0010990   4.7304 355.4040 15.32613673 59647
HORS-1
1 57188U 23091Y   25091.18305565  .00012653  00000-0  63433-3 0  9993
2 57188  97.5667 148.7385 0011229 190.2434 169.8572 15.17432072 97089
HORS-2
1 57196U 23091AG  25091.20037848  .00014083  00000-0  66199-3 0  9992
2 57196  97.5681 149.7461 0010870 188.8109 171.2937 15.19654524 97142
ZORKIY-2M 6
1 59774U 24092B   25091.17967128  .00014580  00000-0  71346-3 0  9999
2 59774  97.6051 208.1892 0010217 283.4598  76.5497 15.18255521 48243
ZORKIY-2M 4
1 59775U 24092C   25091.25273586  .00015179  00000-0  73362-3 0  9992
2 59775  97.6180 208.9403 0010251 286.6442  73.3666 15.18678296 48278
SITRO-AIS-53
1 59776U 24092D   25091.03725161  .00021615  00000-0  10029-2 0  9992
2 59776  97.6130 208.4134 0009920 259.7864 100.2252 15.20017947 48230
SITRO-AIS-54
1 59777U 24092E   25091.23223959  .00018629  00000-0  86578-3 0  9997
2 59777  97.6127 208.6110 0010196 259.5623 100.4463 15.19991891 48267
SITRO-AIS-56
1 59778U 24092F   25090.81640841  .00021496  00000-0  99129-3 0  9996
2 59778  97.6122 208.2227 0010470 261.9569  98.0478 15.20225456 48200
RASSVET 1-4
1 59779U 24092G   25091.19376116  .00000495  00000-0  20260-3 0  9996
2 59779  98.6263 206.8633 0013256  72.5348 287.7283 14.31556740 45650
RASSVET 1-5
1 59780U 24092H   25091.19319834  .00000517  00000-0  21078-3 0  9995
2 59780  98.6262 206.8609 0013489  73.1142 287.1519 14.31556102 45659
RASSVET 1-6
1 59781U 24092J   25091.19218434  .00000503  00000-0  20555-3 0  9994
2 59781  98.6262 206.8629 0013251  72.7833 287.4799 14.31556878 45654
SITRO-AIS-55
1 59809U 24092K   25090.85702567  .00020423  00000-0  95103-3 0  9996
2 59809  97.6123 208.1646 0010319 261.1925  98.8141 15.19902534 47706
MESAT-1
1 60209U 24125G   25091.13520797  .00026665  00000-0  83359-3 0  9998
2 60209  97.2883 303.6344 0020545  30.3631 329.8797 15.32920368 41303
ISTSAT-1
1 60238U 24128D   25091.12664924  .00010473  00000-0  75247-3 0  9990
2 60238  61.9918 320.0610 0044566  42.8932 317.5621 15.03966406 39805
IONOSFERA-M 01
1 61735U 24199A   25091.17995708  .00000139  00000-0  81885-4 0  9997
2 61735  98.7800 322.4985 0001273  33.1906 326.9351 14.22650088 64852
IONOSFERA-M 02
1 61736U 24199B   25091.21486883  .00000131  00000-0  78257-4 0  9993
2 61736  98.7798 322.4494 0001556 117.0955 243.0382 14.22650623 67989
SITRO-AIS-16
1 61737U 24199C   25091.17585324  .00005017  00000-0  47096-3 0  9993
2 61737  97.3685 312.9475 0008661 112.3173 247.8968 14.94351159 65731
SITRO-AIS-15
1 61738U 24199D   25091.16932360  .00005479  00000-0  51324-3 0  9990
2 61738  97.3685 312.9556 0008477 112.5153 247.6966 14.94396757 65736
SITRO-AIS-21
1 61739U 24199E   25091.18771883  .00004237  00000-0  41390-3 0  9997
2 61739  97.3681 312.6371 0014758 107.3429 252.9407 14.92788626 65751
SITRO-AIS-22
1 61740U 24199F   25091.18513091  .00004348  00000-0  42406-3 0  9996
2 61740  97.3684 312.6454 0014850 108.3355 251.9482 14.92842122 65901
SITRO-AIS-24
1 61741U 24199G   25091.18490000  .00003976  00000-0  38874-3 0  9991
2 61741  97.3685 312.6477 0014772 109.6522 250.6294 14.92792929 65873
SITRO-AIS-23
1 61742U 24199H   25091.18069691  .00004353  00000-0  42423-3 0  9995
2 61742  97.3685 312.6512 0014718 109.1379 251.1436 14.92875417 65754
SITRO-AIS-13
1 61743U 24199J   25091.22333184  .00005915  00000-0  55130-3 0  9996
2 61743  97.3678 313.0346 0008241 114.1890 246.0194 14.94569380 65907
CSTP-2.11
1 61744U 24199K   25091.18723602  .00022035  00000-0  73846-3 0  9996
2 61744  97.3674 320.4027 0014450  73.3017 286.9808 15.30833235 66335
POLYTECH UNIVERSE-5 (RS70S)
1 61745U 24199L   25091.20990006  .00024650  00000-0  80017-3 0  9997
2 61745  97.3648 320.4691 0012182  80.5249 279.7369 15.31868804 69483
COLIBRI-S (RS67S)
1 61746U 24199M   25091.15400153  .00020075  00000-0  68611-3 0  9994
2 61746  97.3675 320.2906 0014555  73.8869 286.3973 15.30213732 69466
POLYTECH UNIVERSE-4 (RS71S)
1 61747U 24199N   25091.16574688  .00018542  00000-0  64138-3 0  9997
2 61747  97.3674 320.2732 0014569  72.3078 287.9752 15.29840278 69465
